#aV2019  4  2  0  0  0.00000000     288 DD+AD WGS84 FIT  NGA
## 2047 172800.00000000   300.00000000 58575 0.0000000000000
+   31     1  2  3  5  6  7  8  9 10 11 12 13 14 15 16 17 18
+         19 20 21 22 23 24 25 26 27 28 29 30 31 32  0  0  0
+          0  0  0  0  0  0  0  0  0  0  0  0  0  0  0  0  0
+          0  0  0  0  0  0  0  0  0  0  0  0  0  0  0  0  0
+          0  0  0  0  0  0  0  0  0  0  0  0  0  0  0  0  0
++         2  2  2  2  2  2  2  2  2  2  2  2  2  2  2  2  2
++         2  2  2  2  2  2  2  2  2  2  2  2  2  2  0  0  0
++         0  0  0  0  0  0  0  0  0  0  0  0  0  0  0  0  0
++         0  0  0  0  0  0  0  0  0  0  0  0  0  0  0  0  0
++         0  0  0  0  0  0  0  0  0  0  0  0  0  0  0  0  0
%c cc cc ccc ccc cccc cccc cccc cccc ccccc ccccc ccccc ccccc
%c cc cc ccc ccc cccc cccc cccc cccc ccccc ccccc ccccc ccccc
%f  0.0000000  0.000000000  0.00000000000  0.000000000000000
%f  0.0000000  0.000000000  0.00000000000  0.000000000000000
%i    0    0    0    0      0      0      0      0         0
%i    0    0    0    0      0      0      0      0         0
/*      NGA, ST. LOUIS,MO.                                  
/*   EPHEMERIS COMPUTED FROM 2 DAYS OF DATA                 
/*   EPOCHA v3 SMOOTHER                                     
/*   G1762 IERS2010 SATAF SATAPC                            
*  2019  4  2 13  0  0.00000000
P  1 -20750.974306 -11316.321888  12256.032255   -193.288139                    
V  1  -8897.249597 -13057.818097 -26427.887262     -0.079214                    
P  2  12776.189256  21872.342564   8867.556392   -178.993788                    
V  2  -9099.826160  -5612.954542  28785.101884     -0.094968                    
P  3 -14879.764191  -3239.416859  21721.386286    187.734054                    
V  3   8777.827090 -26236.306303   2173.999652      0.006036                    
P  5   4793.790677  21183.990527 -15265.940090      1.168310                    
V  5  -8032.605111  17693.049464  22401.892519     -0.000274                    
P  6   1908.985707  20039.824366  17354.689244    240.620456                    
V  6 -15571.662711 -15507.004657  19703.010208     -0.091735                    
P  7 -17012.478241   1956.158621 -20168.215821      3.027372                    
V  7 -16168.161180 -20466.535409  11050.926179     -0.073955                    
P  8 -19805.356814  -7199.344033 -16251.322688   -138.417703                    
V  8  19839.075907  -5781.602879 -21365.295864     -0.013809                    
P  9 -24830.758106   8402.174743  -4362.147993    435.497819                    
V  9  -5988.824392  -1794.291654  30926.284857     -0.061750                    
P 10  11183.655055 -23572.523413  -4312.558466     82.844936                    
V 10    934.590930   6212.792712 -31289.014704     -0.092212                    
P 11 -24698.436967  -9051.602675   2030.451922   -634.055362                    
V 11  -1101.038019  -5574.488653 -30569.907015      0.070035                    
P 12  13699.328545   5135.047635  21953.531732    254.818338                    
V 12 -10836.944577  26171.945471    809.123136     -0.033240                    
P 13  11859.847584  12966.114338 -20042.265246    -69.392535                    
V 13 -25028.149899   2801.850258 -13032.470668      0.014722                    
P 14   4813.868664 -15526.440811  21285.994957    -86.045811                    
V 14  26249.576375  -2303.885415  -7912.232071      0.014534                    
P 15  21720.625720   5230.310066 -14908.389245   -320.475953                    
V 15 -16986.372487   7525.082052 -22109.716482      0.019505                    
P 16  -3482.309512 -20070.538965 -16977.370082    -29.745352                    
V 16  10042.527684 -18885.631264  20914.738540     -0.027207                    
P 17 -14418.562164  13960.165108  17758.213872     32.825232                    
V 17 -21678.364959   1869.918539 -19607.025819      0.058943                    
P 18 -19709.964791 -17607.538007   2814.522286     40.439646                    
V 18   -741.887604  -5046.112738 -31230.139997      0.035200                    
P 19  -6175.547336  14661.618354  20989.296624   -335.320384                    
V 19 -27200.834373   1954.679435  -9149.874764      0.043651                    
P 20  14169.465278 -17902.784415 -13554.909249    523.635550                    
V 20   -671.159080  17422.551349 -24041.429407      0.003246                    
P 21  13518.580992  -7536.878398 -20771.664969   -220.450775                    
V 21  19356.709972  20699.399905   5033.941524      0.075279                    
P 22 -12765.554565 -11644.379302  20422.673410   -676.149598                    
V 22   7608.154713 -24387.296773  -9194.266270     -0.072029                    
P 23 -25854.279349    182.570569   7275.131548   -191.755122                    
V 23   7953.232587  -4547.380011  29303.021524      0.014542                    
P 24  21481.829224  13388.981068   8420.807953    -64.224246                    
V 24   5369.143900   9886.870288 -28557.824968     -0.004379                    
P 25  16486.315923  -8437.336225  18730.644123   -740.807118                    
V 25  -6558.568543  23427.636490  16398.899723     -0.046068                    
P 26   2551.002063 -25319.818441  -7292.639223    165.434924                    
V 26   5718.464142  -7939.947752  29816.171855      0.099873                    
P 27  -9391.740658 -12821.843564 -21428.614433    -99.409790                    
V 27  26272.888028  -5646.548935  -7881.200263     -0.083951                    
P 28 -13191.519090  22592.490508  -4246.589922    767.082158                    
V 28    595.212157  -6452.652476 -31571.149984      0.004294                    
P 29  26369.796376  -3155.444685    424.317599    235.030044                    
V 29   -305.152501   2079.697805  32291.356318     -0.089809                    
P 30  -8974.208280  13375.172839 -21078.157854    -79.299200                    
V 30 -17342.689253 -20582.485126  -5853.511857     -0.067617                    
P 31  -2179.041217 -20627.811576  16327.511036     47.866382                    
V 31  14946.569089  14786.560720  21110.718067     -0.026414                    
P 32  10895.943904 -15564.462117  18563.816805   -151.598678                    
V 32  23360.036734  -3160.953267 -16516.430026      0.180537                    
EOF
